0 FENGYUN 1C DEB
1 29933U 99025JF  13281.43165238  .00002802  00000-0  13403-2 0  1209
2 29933 098.7749 244.9338 0014840 077.5667 043.2517 14.19853002348112
0 FENGYUN 1C DEB
1 29933U 99025JF  13283.81669336  .00003783  00000-0  18008-2 0  1217
2 29933 098.7744 247.2986 0014997 071.5419 353.5726 14.19872674348456
0 FENGYUN 1C DEB
1 29933U 99025JF  13285.85341479  .00003801  00000-0  18092-2 0  1223
2 29933 098.7743 249.3175 0014986 066.0187 324.0726 14.19884388348747
0 FENGYUN 1C DEB
1 29933U 99025JF  13288.12765211  .00005575  00000-0  26422-2 0  1237
2 29933 098.7742 251.5724 0015057 060.3472 068.2351 14.19903094349068
0 FENGYUN 1C DEB
1 29933U 99025JF  13290.16968547  .00005038  00000-0  23892-2 0  1244
2 29933 098.7747 253.5968 0015064 055.1949 065.7485 14.19918230349354
0 FENGYUN 1C DEB
1 29933U 99025JF  13292.42438946  .00004206  00000-0  19976-2 0  1255
2 29933 098.7757 255.8321 0015151 049.6407 070.2895 14.19939009349675
0 FENGYUN 1C DEB
1 29933U 99025JF  13294.74913433  .00005693  00000-0  26950-2 0  1263
2 29933 098.7760 258.1371 0015164 043.7191 073.1995 14.19955763350006
